NORAD_CAT_ID,OBJECT_NAME,OBJECT_TYPE,EPOCH,MEAN_MOTION,ECCENTRICITY,INCLINATION,RA_OF_ASC_NODE,ARG_OF_PERICENTER,MEAN_ANOMALY,BSTAR,MEAN_MOTION_DOT,MEAN_MOTION_DDOT,TLE_LINE0,TLE_LINE1,TLE_LINE2,SEMIMAJOR_AXIS,PERIOD,APOGEE,PERIGEE,DECAYED
52853.0,STARLINK-4189,PAYLOAD,2022-09-22 14:00:01,15.08810848,0.0002096,53.2131,298.9127,33.6334,37.4388,0.0025959,0.00041235,0.0,0 STARLINK-4189,1 52853U 22062Z   22265.58334491  .00041235  00000-0  25959-2 0  9996,2 52853  53.2131 298.9127 0002096  33.6334  37.4388 15.08810848  1307,6917.969,95.439,541.285,538.384,0.0
52853.0,STARLINK-4189,PAYLOAD,2022-09-22 22:00:00,15.08814042,0.0001909,53.2133,297.4144,37.7639,44.8944,0.0024506999999999,0.00038903,0.0,0 STARLINK-4189,1 52853U 22062Z   22265.91667824  .00038903  00000-0  24507-2 0  9998,2 52853  53.2133 297.4144 0001909  37.7639  44.8944 15.08814042  1307,6917.96,95.439,541.145,538.504,0.0
52853.0,STARLINK-4189,PAYLOAD,2022-09-23 14:00:01,15.08833308,0.0002190999999999,53.213,294.4231,34.9706,70.8692,0.0023114999999999,0.00036685,0.0,0 STARLINK-4189,1 52853U 22062Z   22266.58334491  .00036685  00000-0  23115-2 0  9992,2 52853  53.2130 294.4231 0002191  34.9706  70.8692 15.08833308 15722,6917.901,95.438,541.2819999999998,538.25,0.0
52853.0,STARLINK-4189,PAYLOAD,2022-09-23 22:00:00,15.08844522,0.0002015,53.2132,292.9249,40.0965,77.3524,0.00021588,3.15e-05,0.0,0 STARLINK-4189,1 52853U 22062Z   22266.91667824  .00003150  00000-0  21588-3 0  9992,2 52853  53.2132 292.9249 0002015  40.0965  77.3524 15.08844522  1301,6917.8669999999975,95.437,541.126,538.3380000000002,0.0
52853.0,STARLINK-4189,PAYLOAD,2022-09-24 06:00:00,15.08846803,0.0002181,53.2132,291.4292,42.0863,86.9667,-0.0014374,-0.00023097,0.0,0 STARLINK-4189,1 52853U 22062Z   22267.25001157 -.00023097  00000-0 -14374-2 0  9999,2 52853  53.2132 291.4292 0002181  42.0863  86.9667 15.08846803 15837,6917.86,95.437,541.2330000000002,538.216,0.0
52853.0,STARLINK-4189,PAYLOAD,2022-09-24 14:00:01,15.08830925,0.0002298,53.2128,289.9333,38.801,101.9094,0.0017454,0.00027593,0.0,0 STARLINK-4189,1 52853U 22062Z   22267.58335648  .00027593  00000-0  17454-2 0  9995,2 52853  53.2128 289.9333 0002298  38.8010 101.9094 15.08830925  1303,6917.908,95.438,541.363,538.183,0.0
52853.0,STARLINK-4189,PAYLOAD,2022-09-24 22:00:00,15.08831342,0.0002063,53.2128,288.4351,42.805,109.4452,0.0017282,0.00027317,0.0,0 STARLINK-4189,1 52853U 22062Z   22267.91667824  .00027317  00000-0  17282-2 0  9999,2 52853  53.2128 288.4351 0002063  42.8050 109.4452 15.08831342  1301,6917.906999999997,95.438,541.1990000000002,538.345,0.0
52853.0,STARLINK-4189,PAYLOAD,2022-09-25 14:00:01,15.08830265,0.0002227,53.2124,285.4435,38.2718,137.1716,0.0011005,0.00017265,0.0,0 STARLINK-4189,1 52853U 22062Z   22268.58334491  .00017265  00000-0  11005-2 0  9992,2 52853  53.2124 285.4435 0002227  38.2718 137.1716 15.08830265  1303,6917.91,95.438,541.316,538.235,0.0
52853.0,STARLINK-4189,PAYLOAD,2022-09-26 00:00:00,15.088384,0.0001964,53.2143,283.5705,44.5074,235.4168,-0.00018203,-3.184e-05,0.0,0 STARLINK-4189,1 52853U 22062Z   22269.00001157 -.00003184  00000-0 -18203-3 0  9995,2 52853  53.2143 283.5705 0001964  44.5074 235.4168 15.08838400  1307,6917.885,95.438,541.109,538.3919999999998,0.0
52853.0,STARLINK-4189,PAYLOAD,2022-09-26 10:00:00,15.08800535,0.0002176,53.2143,281.7025,38.8598,345.5521,0.0015735,0.00024816,0.0,0 STARLINK-4189,1 52853U 22062Z   22269.41667824  .00024816  00000-0  15735-2 0  9998,2 52853  53.2143 281.7025 0002176  38.8598 345.5521 15.08800535 16158,6918.001,95.44,541.371,538.361,0.0
52853.0,STARLINK-4189,PAYLOAD,2022-09-26 14:00:01,15.08818976,0.0002165,53.2139,280.9538,37.9486,172.2385,0.00017359,2.474e-05,0.0,0 STARLINK-4189,1 52853U 22062Z   22269.58334491  .00002474  00000-0  17359-3 0  9998,2 52853  53.2139 280.9538 0002165  37.9486 172.2385 15.08818976  1309,6917.945,95.439,541.307,538.312,0.0
52853.0,STARLINK-4189,PAYLOAD,2022-09-27 00:00:00,15.08813694,0.0002,53.214,279.0816,44.581,270.073,0.0022151999999999,0.00035118,0.0,0 STARLINK-4189,1 52853U 22062Z   22270.00001157  .00035118  00000-0  22152-2 0  9994,2 52853  53.2140 279.0816 0002000  44.5810 270.0730 15.08813694  1305,6917.9609999999975,95.439,541.2090000000002,538.442,0.0
52853.0,STARLINK-4189,PAYLOAD,2022-09-27 14:00:01,15.08843356,0.0002215,53.2137,276.4642,39.7897,205.1277,-0.00016279,-2.879e-05,0.0,0 STARLINK-4189,1 52853U 22062Z   22270.58334491 -.00002879  00000-0 -16279-3 0  9991,2 52853  53.2137 276.4642 0002215  39.7897 205.1277 15.08843356  1301,6917.87,95.437,541.2669999999998,538.203,0.0
52853.0,STARLINK-4189,PAYLOAD,2022-09-27 22:00:01,15.088237699999995,0.0002085,53.2137,274.966,44.9974,211.5874,0.0030985,0.00049349,0.0,0 STARLINK-4189,1 52853U 22062Z   22270.91668981  .00049349  00000-0  30985-2 0  9992,2 52853  53.2137 274.9660 0002085  44.9974 211.5874 15.08823770  1305,6917.93,95.439,541.237,538.3530000000002,0.0
52853.0,STARLINK-4189,PAYLOAD,2022-09-28 14:00:01,15.0884521,0.0002210999999999,53.2138,271.9744,38.6701,241.0181,-0.00066429,-0.00010847,0.0,0 STARLINK-4189,1 52853U 22062Z   22271.58334491 -.00010847  00000-0 -66429-3 0  9998,2 52853  53.2138 271.9744 0002211  38.6701 241.0181 15.08845210  1307,6917.864000000001,95.437,541.259,538.2,0.0
52853.0,STARLINK-4189,PAYLOAD,2022-09-28 22:00:00,15.08830554,0.0002051,53.2141,270.4763,43.154,248.1279,0.00064891,0.00010052,0.0,0 STARLINK-4189,1 52853U 22062Z   22271.91667824  .00010052  00000-0  64891-3 0  9991,2 52853  53.2141 270.4763 0002051  43.1540 248.1279 15.08830554  1301,6917.909000000002,95.438,541.193,538.355,0.0
52853.0,STARLINK-4189,PAYLOAD,2022-09-29 14:00:01,15.08839888,0.0002230999999999,53.2144,267.4848,37.8238,276.617,-0.0011546,-0.00018617,0.0,0 STARLINK-4189,1 52853U 22062Z   22272.58334491 -.00018617  00000-0 -11546-2 0  9991,2 52853  53.2144 267.4848 0002231  37.8238 276.6170 15.08839888 16635,6917.880999999999,95.438,541.289,538.202,0.0
52853.0,STARLINK-4189,PAYLOAD,2022-09-29 22:00:00,15.08816191,0.0002114,53.2148,265.9869,43.4617,282.5727,0.0031886999999999,0.00050794,0.0,0 STARLINK-4189,1 52853U 22062Z   22272.91667824  .00050794  00000-0  31887-2 0  9997,2 52853  53.2148 265.9869 0002114  43.4617 282.5727 15.08816191  1303,6917.953,95.439,541.281,538.356,0.0
52853.0,STARLINK-4189,PAYLOAD,2022-09-30 06:00:02,15.08848996,0.0002319999999999,53.2149,264.4921,41.3561,296.3306,-0.00031673,-5.327e-05,0.0,0 STARLINK-4189,1 52853U 22062Z   22273.25002315 -.00005327  00000-0 -31673-3 0  9991,2 52853  53.2149 264.4921 0002320  41.3561 296.3306 15.08848996 16738,6917.853,95.437,541.323,538.113,0.0
52853.0,STARLINK-4189,PAYLOAD,2022-09-30 14:00:01,15.08871429,0.0002295999999999,53.215,262.9954,39.8619,309.3609,-0.0013847999999999,-0.0002228,0.0,0 STARLINK-4189,1 52853U 22062Z   22273.58334491 -.00022280  00000-0 -13848-2 0  9990,2 52853  53.2150 262.9954 0002296  39.8619 309.3609 15.08871429  1302,6917.784000000002,95.436,541.238,538.061,0.0
52853.0,STARLINK-4189,PAYLOAD,2022-09-30 22:00:00,15.08852805,0.0002124,53.2153,261.4976,44.5924,316.2613,0.00073916,0.00011499,0.0,0 STARLINK-4189,1 52853U 22062Z   22273.91667824  .00011499  00000-0  73916-3 0  9997,2 52853  53.2153 261.4976 0002124  44.5924 316.2613 15.08852805  1315,6917.840999999999,95.437,541.1759999999998,538.237,0.0
52853.0,STARLINK-4189,PAYLOAD,2022-10-01 14:00:01,15.08878303,0.0002195,53.2152,258.5059,38.6184,345.4557,-0.0041229,-0.0006538,0.0,0 STARLINK-4189,1 52853U 22062Z   22274.58334491 -.00065380  00000-0 -41229-2 0  9993,2 52853  53.2152 258.5059 0002195  38.6184 345.4557 15.08878303  1304,6917.763000000001,95.435,541.1469999999998,538.11,0.0
52853.0,STARLINK-4189,PAYLOAD,2022-10-01 22:00:00,15.08828631,0.0001985,53.2154,257.0084,41.9436,353.7459,0.00033887,5.107e-05,0.0,0 STARLINK-4189,1 52853U 22062Z   22274.91667824  .00005107  00000-0  33887-3 0  9990,2 52853  53.2154 257.0084 0001985  41.9436 353.7459 15.08828631  1303,6917.915,95.438,541.153,538.4069999999998,0.0
52853.0,STARLINK-4189,PAYLOAD,2022-10-02 14:00:01,15.08852002,0.0002109999999999,53.2151,254.0168,38.4028,20.4483,-0.0014033,-0.0002255999999999,0.0,0 STARLINK-4189,1 52853U 22062Z   22275.58334491 -.00022560  00000-0 -14033-2 0  9990,2 52853  53.2151 254.0168 0002110  38.4028  20.4483 15.08852002  1303,6917.844,95.437,541.168,538.249,0.0
52853.0,STARLINK-4189,PAYLOAD,2022-10-02 22:00:00,15.0884435,0.0002006999999999,53.2151,252.5195,45.2803,25.1736,-6.5263e-05,-1.327e-05,0.0,0 STARLINK-4189,1 52853U 22062Z   22275.91667824 -.00001327  00000-0 -65263-4 0  9997,2 52853  53.2151 252.5195 0002007  45.2803  25.1736 15.08844350  1308,6917.8669999999975,95.437,541.121,538.344,0.0
52853.0,STARLINK-4189,PAYLOAD,2022-10-03 06:00:00,15.08834731,0.0002223,53.2149,251.0249,43.1015,38.9547,0.0007252999999999,0.00011272,0.0,0 STARLINK-4189,1 52853U 22062Z   22276.25001157  .00011272  00000-0  72530-3 0  9998,2 52853  53.2149 251.0249 0002223  43.1015  38.9547 15.08834731 17188,6917.896,95.438,541.299,538.224,0.0
52853.0,STARLINK-4189,PAYLOAD,2022-10-03 14:00:01,15.08881713,0.0002109,53.2145,249.5277,42.8653,50.7808,-0.0041141999999999,-0.00065249,0.0,0 STARLINK-4189,1 52853U 22062Z   22276.58334491 -.00065249  00000-0 -41142-2 0  9993,2 52853  53.2145 249.5277 0002109  42.8653  50.7808 15.08881713  1305,6917.753000000002,95.435,541.077,538.159,0.0
52853.0,STARLINK-4189,PAYLOAD,2022-10-03 22:00:00,15.08837264,0.0001927,53.2145,248.0304,46.457,58.8058,0.0014715,0.00023207,0.0,0 STARLINK-4189,1 52853U 22062Z   22276.91667824  .00023207  00000-0  14715-2 0  9991,2 52853  53.2145 248.0304 0001927  46.4570  58.8058 15.08837264  1303,6917.889,95.438,541.087,538.4209999999998,0.0
52853.0,STARLINK-4189,PAYLOAD,2022-10-04 14:00:01,15.08865473,0.0001909999999999,53.2139,245.0384,40.5157,87.9405,-0.0039912,-0.00063296,0.0,0 STARLINK-4189,1 52853U 22062Z   22277.58334491 -.00063296  00000-0 -39912-2 0  9996,2 52853  53.2139 245.0384 0001910  40.5157  87.9405 15.08865473  1301,6917.803000000001,95.436,540.989,538.346,0.0
